CCSDS_OMM_VERS = 2.0
CREATION_DATE  = 
ORIGINATOR     = 

OBJECT_NAME    = CZ-2C R/B
OBJECT_ID      = 2025-266D
CENTER_NAME    = EARTH
REF_FRAME      = TEME
TIME_SYSTEM    = UTC
MEAN_ELEMENT_THEORY = SGP/SGP4

EPOCH          = 2025-12-10T13:50:55.825728
MEAN_MOTION    = 15.30105455
ECCENTRICITY   = .00840381
INCLINATION    = 52.0563
RA_OF_ASC_NODE = 341.5825
ARG_OF_PERICENTER = 165.6030
MEAN_ANOMALY   = 194.7379

EPHEMERIS_TYPE = 0
CLASSIFICATION_TYPE = U
NORAD_CAT_ID   = 66548
ELEMENT_SET_NO = 999
REV_AT_EPOCH   = 328
BSTAR          = .46953982E-3
MEAN_MOTION_DOT = .15091E-3
MEAN_MOTION_DDOT = 0

CCSDS_OMM_VERS = 2.0
CREATION_DATE  = 
ORIGINATOR     = 

OBJECT_NAME    = SHIJIAN-28
OBJECT_ID      = 2025-277A
CENTER_NAME    = EARTH
REF_FRAME      = TEME
TIME_SYSTEM    = UTC
MEAN_ELEMENT_THEORY = SGP/SGP4

EPOCH          = 2025-12-01T04:36:42.476256
MEAN_MOTION    = 2.08595383
ECCENTRICITY   = .6308324
INCLINATION    = 11.5392
RA_OF_ASC_NODE = 275.7060
ARG_OF_PERICENTER = 179.9335
MEAN_ANOMALY   = 180.3971

EPHEMERIS_TYPE = 0
CLASSIFICATION_TYPE = U
NORAD_CAT_ID   = 66549
ELEMENT_SET_NO = 999
REV_AT_EPOCH   = 5
BSTAR          = 0
MEAN_MOTION_DOT = -.33E-6
MEAN_MOTION_DDOT = 0

CCSDS_OMM_VERS = 2.0
CREATION_DATE  = 
ORIGINATOR     = 

OBJECT_NAME    = CZ-7A R/B
OBJECT_ID      = 2025-277B
CENTER_NAME    = EARTH
REF_FRAME      = TEME
TIME_SYSTEM    = UTC
MEAN_ELEMENT_THEORY = SGP/SGP4

EPOCH          = 2025-12-09T05:27:24.418944
MEAN_MOTION    = 2.57975656
ECCENTRICITY   = .71041719
INCLINATION    = 14.4001
RA_OF_ASC_NODE = 271.6446
ARG_OF_PERICENTER = 185.6905
MEAN_ANOMALY   = 156.7335

EPHEMERIS_TYPE = 0
CLASSIFICATION_TYPE = U
NORAD_CAT_ID   = 66550
ELEMENT_SET_NO = 999
REV_AT_EPOCH   = 25
BSTAR          = .29500826E-2
MEAN_MOTION_DOT = .1805656E-1
MEAN_MOTION_DDOT = .550612E-6

CCSDS_OMM_VERS = 2.0
CREATION_DATE  = 
ORIGINATOR     = 

OBJECT_NAME    = UNKNOWN
OBJECT_ID      = 2025-271AE
CENTER_NAME    = EARTH
REF_FRAME      = TEME
TIME_SYSTEM    = UTC
MEAN_ELEMENT_THEORY = SGP/SGP4

EPOCH          = 2025-12-02T16:00:03.000096
MEAN_MOTION    = 15.87051116
ECCENTRICITY   = .0000717
INCLINATION    = 53.1571
RA_OF_ASC_NODE = 236.7807
ARG_OF_PERICENTER = 110.7411
MEAN_ANOMALY   = 313.9012

EPHEMERIS_TYPE = 0
CLASSIFICATION_TYPE = U
NORAD_CAT_ID   = 66551
ELEMENT_SET_NO = 999
REV_AT_EPOCH   = 262
BSTAR          = -.74303E-2
MEAN_MOTION_DOT = -.1709685E-1
MEAN_MOTION_DDOT = 0

CCSDS_OMM_VERS = 2.0
CREATION_DATE  = 
ORIGINATOR     = 

OBJECT_NAME    = GLOBAL-33
OBJECT_ID      = 2025-267A
CENTER_NAME    = EARTH
REF_FRAME      = TEME
TIME_SYSTEM    = UTC
MEAN_ELEMENT_THEORY = SGP/SGP4

EPOCH          = 2025-12-10T15:24:39.487680
MEAN_MOTION    = 15.31574515
ECCENTRICITY   = .00044949
INCLINATION    = 42.0208
RA_OF_ASC_NODE = 69.1028
ARG_OF_PERICENTER = 38.4593
MEAN_ANOMALY   = 321.6564

EPHEMERIS_TYPE = 0
CLASSIFICATION_TYPE = U
NORAD_CAT_ID   = 66554
ELEMENT_SET_NO = 999
REV_AT_EPOCH   = 308
BSTAR          = .6382923E-3
MEAN_MOTION_DOT = .19688E-3
MEAN_MOTION_DDOT = 0

CCSDS_OMM_VERS = 2.0
CREATION_DATE  = 
ORIGINATOR     = 

OBJECT_NAME    = ELECTRON KICK STAGE R/B
OBJECT_ID      = 2025-267B
CENTER_NAME    = EARTH
REF_FRAME      = TEME
TIME_SYSTEM    = UTC
MEAN_ELEMENT_THEORY = SGP/SGP4

EPOCH          = 2025-12-10T13:36:01.716192
MEAN_MOTION    = 15.32640708
ECCENTRICITY   = .00066771
INCLINATION    = 42.0194
RA_OF_ASC_NODE = 69.4021
ARG_OF_PERICENTER = 35.6686
MEAN_ANOMALY   = 324.4597

EPHEMERIS_TYPE = 0
CLASSIFICATION_TYPE = U
NORAD_CAT_ID   = 66555
ELEMENT_SET_NO = 999
REV_AT_EPOCH   = 307
BSTAR          = .11507822E-2
MEAN_MOTION_DOT = .37019E-3
MEAN_MOTION_DDOT = 0

CCSDS_OMM_VERS = 2.0
CREATION_DATE  = 
ORIGINATOR     = 

OBJECT_NAME    = STARLINK-35699
OBJECT_ID      = 2025-268A
CENTER_NAME    = EARTH
REF_FRAME      = TEME
TIME_SYSTEM    = UTC
MEAN_ELEMENT_THEORY = SGP/SGP4

EPOCH          = 2025-12-10T14:00:03.000384
MEAN_MOTION    = 15.50627127
ECCENTRICITY   = .00012286
INCLINATION    = 43.0002
RA_OF_ASC_NODE = 133.8112
ARG_OF_PERICENTER = 263.9775
MEAN_ANOMALY   = 23.2421

EPHEMERIS_TYPE = 0
CLASSIFICATION_TYPE = U
NORAD_CAT_ID   = 66557
ELEMENT_SET_NO = 999
REV_AT_EPOCH   = 432
BSTAR          = -.23067088E-2
MEAN_MOTION_DOT = -.133608E-2
MEAN_MOTION_DDOT = 0

CCSDS_OMM_VERS = 2.0
CREATION_DATE  = 
ORIGINATOR     = 

OBJECT_NAME    = STARLINK-35695
OBJECT_ID      = 2025-268B
CENTER_NAME    = EARTH
REF_FRAME      = TEME
TIME_SYSTEM    = UTC
MEAN_ELEMENT_THEORY = SGP/SGP4

EPOCH          = 2025-12-10T14:00:03.000384
MEAN_MOTION    = 15.50529786
ECCENTRICITY   = .00019238
INCLINATION    = 43.0003
RA_OF_ASC_NODE = 133.8068
ARG_OF_PERICENTER = 266.0902
MEAN_ANOMALY   = 23.0346

EPHEMERIS_TYPE = 0
CLASSIFICATION_TYPE = U
NORAD_CAT_ID   = 66558
ELEMENT_SET_NO = 999
REV_AT_EPOCH   = 432
BSTAR          = .13912939E-2
MEAN_MOTION_DOT = .81996E-3
MEAN_MOTION_DDOT = 0

CCSDS_OMM_VERS = 2.0
CREATION_DATE  = 
ORIGINATOR     = 

OBJECT_NAME    = STARLINK-35419
OBJECT_ID      = 2025-268C
CENTER_NAME    = EARTH
REF_FRAME      = TEME
TIME_SYSTEM    = UTC
MEAN_ELEMENT_THEORY = SGP/SGP4

EPOCH          = 2025-12-10T14:00:03.000384
MEAN_MOTION    = 15.50620994
ECCENTRICITY   = .00016998
INCLINATION    = 43.0002
RA_OF_ASC_NODE = 133.8030
ARG_OF_PERICENTER = 265.0896
MEAN_ANOMALY   = 25.9623

EPHEMERIS_TYPE = 0
CLASSIFICATION_TYPE = U
NORAD_CAT_ID   = 66559
ELEMENT_SET_NO = 999
REV_AT_EPOCH   = 432
BSTAR          = -.2071458E-2
MEAN_MOTION_DOT = -.1202E-2
MEAN_MOTION_DDOT = 0

CCSDS_OMM_VERS = 2.0
CREATION_DATE  = 
ORIGINATOR     = 

OBJECT_NAME    = STARLINK-35411
OBJECT_ID      = 2025-268D
CENTER_NAME    = EARTH
REF_FRAME      = TEME
TIME_SYSTEM    = UTC
MEAN_ELEMENT_THEORY = SGP/SGP4

EPOCH          = 2025-12-10T14:00:03.000384
MEAN_MOTION    = 15.50590534
ECCENTRICITY   = .00016999
INCLINATION    = 43.0000
RA_OF_ASC_NODE = 133.7980
ARG_OF_PERICENTER = 270.2470
MEAN_ANOMALY   = 22.7238

EPHEMERIS_TYPE = 0
CLASSIFICATION_TYPE = U
NORAD_CAT_ID   = 66560
ELEMENT_SET_NO = 999
REV_AT_EPOCH   = 432
BSTAR          = -.92075575E-3
MEAN_MOTION_DOT = -.5401E-3
MEAN_MOTION_DDOT = 0

CCSDS_OMM_VERS = 2.0
CREATION_DATE  = 
ORIGINATOR     = 

OBJECT_NAME    = STARLINK-35305
OBJECT_ID      = 2025-268E
CENTER_NAME    = EARTH
REF_FRAME      = TEME
TIME_SYSTEM    = UTC
MEAN_ELEMENT_THEORY = SGP/SGP4

EPOCH          = 2025-12-10T14:00:03.000384
MEAN_MOTION    = 15.50626398
ECCENTRICITY   = .00016167
INCLINATION    = 43.0001
RA_OF_ASC_NODE = 133.7885
ARG_OF_PERICENTER = 263.8453
MEAN_ANOMALY   = 32.9598

EPHEMERIS_TYPE = 0
CLASSIFICATION_TYPE = U
NORAD_CAT_ID   = 66561
ELEMENT_SET_NO = 999
REV_AT_EPOCH   = 427
BSTAR          = -.22552823E-2
MEAN_MOTION_DOT = -.130687E-2
MEAN_MOTION_DDOT = 0

CCSDS_OMM_VERS = 2.0
CREATION_DATE  = 
ORIGINATOR     = 

OBJECT_NAME    = STARLINK-35579
OBJECT_ID      = 2025-268F
CENTER_NAME    = EARTH
REF_FRAME      = TEME
TIME_SYSTEM    = UTC
MEAN_ELEMENT_THEORY = SGP/SGP4

EPOCH          = 2025-12-10T14:00:03.000384
MEAN_MOTION    = 15.50586053
ECCENTRICITY   = .0001685
INCLINATION    = 43.0002
RA_OF_ASC_NODE = 133.7923
ARG_OF_PERICENTER = 269.4817
MEAN_ANOMALY   = 25.4064

EPHEMERIS_TYPE = 0
CLASSIFICATION_TYPE = U
NORAD_CAT_ID   = 66562
ELEMENT_SET_NO = 999
REV_AT_EPOCH   = 432
BSTAR          = -.71541641E-3
MEAN_MOTION_DOT = -.42098E-3
MEAN_MOTION_DDOT = 0

