CZ-2C R/B               
1 66548U 25266D   25344.57703502  .00015091  00000+0  46954-3 0  9993
2 66548  52.0563 341.5825 0084038 165.6030 194.7379 15.30105455  3286
SHIJIAN-28              
1 66549U 25277A   25335.19215829 -.00000033  00000+0  00000+0 0  9993
2 66549  11.5392 275.7060 6308324 179.9335 180.3971  2.08595383    50
CZ-7A R/B               
1 66550U 25277B   25343.22736596  .01805656  55061-6  29501-2 0  9995
2 66550  14.4001 271.6446 7104171 185.6905 156.7335  2.57975656   258
UNKNOWN                 
1 66551U 25271AE  25336.66670139 -.01709685  00000+0 -74303-2 0  9993
2 66551  53.1571 236.7807 0000717 110.7411 313.9012 15.87051116  2624
GLOBAL-33               
1 66554U 25267A   25344.64212370  .00019688  00000+0  63829-3 0  9993
2 66554  42.0208  69.1028 0004494  38.4593 321.6564 15.31574515  3088
ELECTRON KICK STAGE R/B 
1 66555U 25267B   25344.56668653  .00037019  00000+0  11508-2 0  9998
2 66555  42.0194  69.4021 0006677  35.6686 324.4597 15.32640708  3071
STARLINK-35699          
1 66557U 25268A   25344.58336806 -.00133608  00000+0 -23067-2 0  9991
2 66557  43.0002 133.8112 0001228 263.9775  23.2421 15.50627127  4320
STARLINK-35695          
1 66558U 25268B   25344.58336806  .00081996  00000+0  13913-2 0  9991
2 66558  43.0003 133.8068 0001923 266.0902  23.0346 15.50529786  4326
STARLINK-35419          
1 66559U 25268C   25344.58336806 -.00120200  00000+0 -20715-2 0  9994
2 66559  43.0002 133.8030 0001699 265.0896  25.9623 15.50620994  4328
STARLINK-35411          
1 66560U 25268D   25344.58336806 -.00054010  00000+0 -92076-3 0  9991
2 66560  43.0000 133.7980 0001699 270.2470  22.7238 15.50590534  4320
STARLINK-35305          
1 66561U 25268E   25344.58336806 -.00130687  00000+0 -22553-2 0  9999
2 66561  43.0001 133.7885 0001616 263.8453  32.9598 15.50626398  4278
STARLINK-35579          
1 66562U 25268F   25344.58336806 -.00042098  00000+0 -71542-3 0  9991
2 66562  43.0002 133.7923 0001685 269.4817  25.4064 15.50586053  4329
